#cP2023  2 11  0  0  0.00000000      96 ORBIT IGS20 HLM  IGS
## 2248 518400.00000000   900.00000000 59986 0.0000000000000
+   32   G01G02G03G04G05G06G07G08G09G10G11G12G13G14G15G16G17
+        G18G19G20G21G22G23G24G25G26G27G28G29G30G31G32  0  0
+          0  0  0  0  0  0  0  0  0  0  0  0  0  0  0  0  0
+          0  0  0  0  0  0  0  0  0  0  0  0  0  0  0  0  0
+          0  0  0  0  0  0  0  0  0  0  0  0  0  0  0  0  0
++         2  2  2  3  2  2  2  2  3  2  2  2  2  2  2  2  2
++         2  2  2  2  3  2  2  2  2  2  3  2  2  2  3  0  0
++         0  0  0  0  0  0  0  0  0  0  0  0  0  0  0  0  0
++         0  0  0  0  0  0  0  0  0  0  0  0  0  0  0  0  0
++         0  0  0  0  0  0  0  0  0  0  0  0  0  0  0  0  0
%c G  cc GPS ccc cccc cccc cccc cccc ccccc ccccc ccccc ccccc
%c cc cc ccc ccc cccc cccc cccc cccc ccccc ccccc ccccc ccccc
%f  1.2500000  1.025000000  0.00000000000  0.000000000000000
%f  0.0000000  0.000000000  0.00000000000  0.000000000000000
%i    0    0    0    0      0      0      0      0         0
%i    0    0    0    0      0      0      0      0         0
/* RAPID ORBIT COMBINATION FROM WEIGHTED AVERAGE OF:        
/* cod emr esa gfz grg jpl ngs sio usn whu                  
/* REFERENCED TO IGS TIME (IGST) AND TO WEIGHTED MEAN POLE: 
/* PCV:IGS20_2233 OL/AL:FES2014b NONE     Y  ORB:CMB CLK:CMB
*  2023  2 11  0  0  0.00000000
PG01  18336.047064   8540.837242  17082.825315    213.939504  8  8  7 112       
PG02 -18334.523225  -3580.836757 -18161.446109   -621.683866  7 10  8 103       
PG03  16865.485709  -2801.756961  20173.439456   -364.567018  6  6  8 108       
PG04  26604.192616    477.751723    848.829183    -30.187818  9  7 10 102       
PG05  -9962.757851 -13061.236577 -21014.958828   -115.437484  8 10  4 114       
PG06  -2585.130345 -22165.231182  14399.275445    570.892680  5  2  6 115       
PG07  13870.250508  -6505.029195 -21283.718045    243.285082  9  8  7 110       
PG08  22665.247277   7166.189945 -12299.262100   -107.912435  7  5  7  98       
PG09  23388.678431  -8237.351350  -9656.320835   -220.531688  9  8  9 109       
PG10 -10819.951298  23975.770852   2290.105459    -24.191300  7  7  7  41       
PG11 -11856.622143 -23719.169164   1817.736923   -100.938234  9  9  7  76       
PG12 -16587.131555    -56.259474  20440.963857   -338.847146  9  8  7 105       
PG13 -16320.374811 -13084.839880 -16656.351180    474.071199  9  7 10 111       
PG14  13339.783396 -22883.943783   -349.578837    -30.053256  8  5  5  94       
PG15 -23377.822206  -5099.630221 -12264.647120     12.354354  9 10  9 123       
PG16   6718.729988  15718.536066 -20502.944180   -520.623669  8  9  5 112       
PG17  12876.962765 -13032.999319  19699.917693    699.216116 10  6  5 113       
PG18 -11126.320655  10276.499498 -21804.134234   -135.497351  4  7  8 123       
PG19    973.665848 -14766.537776  21825.120020    276.029605  7  5  5 103       
PG20  -3469.911502 -22216.360132 -14267.864215    451.479328  9  9  9 112       
PG21  20353.029021  14437.713096  10790.589994    153.915842 11  9  7 119       
PG22   2978.017080  15386.806291  21894.622446    424.490397  6  6  9 113       
PG23 -16224.322229  18798.147718  -9217.165956      5.626757  6  6  8  86       
PG24 -20393.477627 -11028.295329  12974.199174    -68.473438 10 11  8 126       
PG25 -18077.305908  10449.689034  15942.224942    419.034459  9  8  9 117       
PG26  -1871.654115  23998.358199 -10948.065888    241.369784  4  7  5 121       
PG27  13130.589771  12878.891570 -19544.637781    105.351955  9  7  5  83       
PG28   1540.105396  21483.456284  15511.162368      7.115691  9  8  7 129       
PG29 -25325.639835   3901.964716  -7185.164428   -585.448105 10  6 10 109       
PG30   4692.459861 -18323.699783 -18449.113020   -530.715443 12  9 10 119       
PG31   3557.431375  22927.665734  12332.189865   -208.894636  8  5  7  98       
PG32  -8993.854078  14686.796212  20331.847965   -392.330815 11  9  8  80       
*  2023  2 11  0 15  0.00000000
PG01  19273.794044  10170.881260  15109.412561    213.935634  7  7  7 115       
PG02 -19517.141619  -5324.784214 -16459.590149   -621.681598  7  9  8 113       
PG03  15889.943695   -622.422973  21131.949483   -364.563148  6  6  7 112       
PG04  26355.385395    727.200836   3686.550887    -30.180512  9  6 10  87       
PG05  -8965.115168 -15152.678661 -20018.585944   -115.438904  8 10  4 130       
PG06  -1504.860417 -20776.647658  16490.039244    570.896879  5  1  6 121       
PG07  15251.652767  -4413.768370 -20923.161611    243.278612  9  7  6 104       
PG08  21176.049971   7488.078435 -14531.645856   -107.915215  6  4  6 109       
PG09  24352.250792  -8082.235614  -7031.929036   -220.525378  8  7  9 112       
PG10 -11063.111249  23944.550533   -614.409865    -24.192306  6  7  7  28       
PG11 -11461.466627 -23527.843967   4647.723692   -100.947283  8  8  7  72       
PG12 -15431.094828  -2208.567060  21211.251569   -338.851057  9  7  7  81       
PG13 -14351.439730 -13079.586170 -18384.192364    474.076643 10  6 10 121       
PG14  13507.220348 -22565.387060  -3180.571615    -30.045304  8  6  5  99       
PG15 -21998.268778  -5631.661214 -14444.950692     12.356988  9 10  8 118       
PG16   5470.695215  17569.424600 -19277.451125   -520.621940  8  9  5 105       
PG17  14958.073974 -12957.343241  18196.929250    699.218223  9  6  5 107       
PG18 -12504.203186   8188.940640 -21953.452686   -135.511502  6  7  7 130       
PG19   3504.308995 -14651.860647  21620.170476    276.034287  7  4  5 103       
PG20  -2831.687226 -23597.786434 -12039.416864    451.476823  9  9  9 101       
PG21  20852.944045  15309.856320   8256.421532    153.916401 10  8  7 117       
PG22    555.932027  15368.542202  22091.115230    424.497396  7  6  9 114       
PG23 -15917.764200  17616.702690 -11750.558982      5.628171  7  6  7  94       
PG24 -21071.570800 -12271.743351  10666.344896    -68.487889 10 10  9 124       
PG25 -17401.598874   8566.768433  17711.020306    419.037376  9  8  9 119       
PG26  -2583.294184  24905.987428  -8435.311626    241.370173  5  7  5 119       
PG27  10899.073317  13116.288180 -20700.773074    105.343732  8  7  5  88       
PG28    292.834567  20057.569073  17377.416120      7.130618  9  8  6 120       
PG29 -25979.635635   3706.909987  -4401.477191   -585.450217 10  6 10 109       
PG30   6047.715063 -16563.067260 -19695.087650   -530.714365 12  9  9 113       
PG31   2493.026295  21731.611357  14570.159980   -208.895806  8  5  7  95       
PG32 -11226.511758  14749.988768  19112.247435   -392.341389 10  9  8  83       
*  2023  2 11  0 30  0.00000000
PG01  20158.494730  11548.865828  12874.716269    213.931779  7  7  6 112       
PG02 -20643.008734  -6843.061330 -14458.593271   -621.679622  7  9  8 111       
PG03  15000.547565   1687.670371  21722.167051   -364.559284  6  5  6 111       
PG04  25804.563217   1019.889881   6461.259440    -30.173266 10  6 10 108       
PG05  -8123.485970 -17172.019552 -18681.569651   -115.440106  8  9  5 118       
PG06   -215.230540 -19275.535822  18297.283017    570.900983  5  2  5 106       
PG07  16693.632891  -2448.388978 -20190.353294    243.272718  9  7  5 114       
PG08  19470.789772   7925.851400 -16519.260488   -107.916700  6  4  6 105       
PG09  25023.183637  -7930.735634  -4287.116524   -220.519170  8  6  8 114       
PG10 -11182.797711  23619.251965  -3508.119986    -24.194159  4  6  7  69       
PG11 -10877.707836 -23097.559152   7397.899449   -100.956356  7  8  7  63       
PG12 -14358.970492  -4477.738533  21606.648301   -338.855475  9  6  6  94       
PG13 -12208.181367 -13180.022177 -19801.991340    474.082295 10  6  9 124       
PG14  13558.473015 -21966.354639  -5956.390764    -30.037348  8  6  6  88       
PG15 -20427.114417  -6288.585732 -16386.293399     12.360056  9 10  8 121       
PG16   4391.545638  19349.169072 -17723.596336   -520.620622  8  8  5 113       
PG17  16858.222524 -12983.813711  16391.972876    699.220379  8  7  5 101       
PG18 -13989.431241   6183.677324 -21724.969214   -135.525729  7  7  7 125       
PG19   5994.423805 -14671.747772  21034.322524    276.038777  7  4  5  99       
PG20  -2324.023963 -24753.178440  -9605.668278    451.474744  9  8  9  92       
PG21  21205.360982  15944.935496   5589.293546    153.916540  9  7  7 119       
PG22  -1866.797215  15480.415191  21922.367529    424.504294  7  6  9 117       
PG23 -15576.489220  16162.541068 -14080.152430      5.629530  7  6  6  87       
PG24 -21627.244181 -13276.784716   8176.015469    -68.502371 10 10  9 132       
PG25 -16751.600897   6480.964789  19164.700493    419.040267  9  8  8 113       
PG26  -3157.563710  25569.351018  -5775.115335    241.370506  5  7  5 120       
PG27   8572.281180  13490.232352 -21510.949993    105.335463  8  7  5  86       
PG28  -1151.126119  18548.476967  18943.945444      7.145566  8  9  6 119       
PG29 -26324.619596   3529.931756  -1542.454511   -585.452033 10  5  9 104       
PG30   7556.717415 -14772.507156 -20597.338695   -530.713261 12  8  8 126       
PG31   1228.601689  20395.689727  16549.382396   -208.896654  8  5  7  77       
PG32 -13300.924186  14907.429949  17566.154755   -392.352001 10  9  8  75       
EOF
